27663,NAVSTAR 51 (USA 166),2003,718.0,2217.0,+,55.17,Active,1,MEO,USA,USA,Commercial/Military,Navigation (Global or Regional Positioning),Delta,1 27663U 03005A   24020.62265684  .00000056  00000+0  00000+0 0  9998,2 27663  55.1731 249.9079 0137706  46.2444 324.4860  2.00558091153697,2.00558091,0.0137706,MEO
28474,NAVSTAR 56 (USA 180),2004,718.07,2217.0,+,55.44,Active,1,MEO,USA,USA,Commercial/Military,Navigation (Global or Regional Positioning),Delta,1 28474U 04045A   24020.57207031 -.00000095  00000+0  00000+0 0  9994,2 28474  55.4431   0.1572 0164929 287.5890 251.7101  2.00537925140807,2.00537925,0.0164929,MEO
28874,NAVSTAR 57 (USA 183),2005,717.97,2217.0,+,55.63,Active,1,MEO,USA,USA,Commercial/Military,Navigation (Global or Regional Positioning),Delta,1 28874U 05038A   24020.59699781 -.00000084  00000+0  00000+0 0  9998,2 28874  55.6274 308.4236 0139025 282.6555 251.3149  2.00565863134210,2.00565863,0.0139025,MEO
29155,EWS-G1 (GOES 13),2006,1452.26,3200.0,P,2.24,Active,1,GSO,USA,USA,Military,Earth Observation,Delta,1 29155U 06018A   24020.54841043 -.00000224  00000+0  00000+0 0  9991,2 29155   2.2378  87.0713 0088033 248.5079 100.8639  0.99155517 34555,0.99155517,0.0088033,GSO
29601,NAVSTAR 59 (USA 192),2006,718.0,2060.0,+,55.2,Active,1,MEO,USA,USA,Commercial/Military,Navigation (Global or Regional Positioning),Delta,1 29601U 06052A   24019.92483904  .00000053  00000+0  00000+0 0  9992,2 29601  55.1987 248.9040 0087013  80.3573 280.6937  2.00557676125772,2.00557676,0.0087013,MEO
32260,NAVSTAR 60 (USA 196),2007,717.95,2217.0,+,53.53,Active,1,MEO,USA,USA,Commercial/Military,Navigation (Global or Regional Positioning),Delta,1 32260U 07047A   24020.23128415 -.00000050  00000+0  00000+0 0  9999,2 32260  53.5300 116.4238 0152280  73.5328 288.1337  2.00572108119189,2.00572108,0.015228,MEO
32384,NAVSTAR 61 (USA 199),2007,717.97,2060.0,+,55.76,Active,1,MEO,USA,USA,Commercial/Military,Navigation (Global or Regional Positioning),Delta,1 32384U 07062A   24020.30893831 -.00000085  00000+0  00000+0 0  9990,2 32384  55.7632 309.2766 0024165 148.9521  35.4236  2.00565757117886,2.00565757,0.0024165,MEO
35491,GOES 14,2009,1436.09,3200.0,B,0.07,Active,1,GSO,USA,USA,Government,Earth Observation,Delta,1 35491U 09033A   24020.60875375 -.00000061  00000+0  00000+0 0  9992,2 35491   0.0712 227.7070 0000598  97.7744 264.5781  1.00272380 53306,1.0027238,5.98e-05,GEO
37846,GSAT0101 (GALILEO-PFM),2011,844.69,700.0,+,57.12,Active,1,MEO,French Guiana,ESA,Commercial,Navigation (Global or Regional Positioning),Soyuz,1 37846U 11060A   24020.14407011 -.00000089  00000+0  00000+0 0  9998,2 37846  57.1243   5.5648 0003298 333.3981  26.5859  1.70475796 76130,1.70475796,0.0003298,MEO
37847,GSAT0102 (GALILEO-FM2),2011,844.7,700.0,+,57.12,Active,1,MEO,French Guiana,ESA,Commercial,Navigation (Global or Regional Positioning),Soyuz,1 37847U 11060B   24020.30542172 -.00000089  00000+0  00000+0 0  9995,2 37847  57.1249   5.5606 0005061 318.1814 186.8081  1.70475215 76141,1.70475215,0.0005061,MEO
37951,LUCH-5A,2011,1436.08,950.0,+,6.5,Active,1,GSO,Kazakhstan,Russia/USSR,Government,Communications,Proton,1 37951U 11074B   24020.64370472 -.00000051  00000+0  00000+0 0  9994,2 37951   6.5013  87.3979 0003157 201.2183 229.4795  1.00272942 44247,1.00272942,0.0003157,GSO
38552,METEOSAT-10 (MSG-3),2012,1436.06,2000.0,+,2.63,Active,1,GSO,French Guiana,EUMETSAT,Civil/Government,Earth Observation,Ariane,1 38552U 12035B   24020.24610456 -.00000004  00000+0  00000+0 0  9993,2 38552   2.6353  59.5810 0001203 231.9161 276.2732  1.00274456 42049,1.00274456,0.0001203,GSO
38833,NAVSTAR 67 (USA 239),2012,718.0,1630.0,+,53.51,Active,1,MEO,USA,USA,Commercial/Military,Navigation (Global or Regional Positioning),Delta,1 38833U 12053A   24019.82154969  .00000076  00000+0  00000+0 0  9997,2 38833  53.5147 179.5718 0148872  54.7158 306.6466  2.00556123 81802,2.00556123,0.0148872,MEO
38857,GSAT0103 (GALILEO-FM3),2012,844.71,700.0,+,55.34,Active,1,MEO,French Guiana,ESA,Commercial,Navigation (Global or Regional Positioning),Soyuz,1 38857U 12055A   24019.59665273 -.00000025  00000+0  00000+0 0  9999,2 38857  55.3411 125.7186 0003785 252.2575 107.6824  1.70473383 70150,1.70473383,0.0003785,MEO
38858,GSAT0104 (GALILEO-FM4),2012,844.71,700.0,+,55.34,Active,1,MEO,French Guiana,ESA,Commercial,Navigation (Global or Regional Positioning),Soyuz,1 38858U 12055B   24020.15251134 -.00000030  00000+0  00000+0 0  9997,2 38858  55.3412 125.7049 0001748 224.7009 135.2642  1.70473603 70029,1.70473603,0.0001748,MEO
39166,NAVSTAR 68 (USA 242),2013,717.98,1630.0,+,55.24,Active,1,MEO,USA,USA,Commercial/Military,Navigation (Global or Regional Positioning),Atlas,1 39166U 13023A   24020.18601684 -.00000078  00000+0  00000+0 0  9990,2 39166  55.2409 304.5811 0120742  42.2665 318.6777  2.00563404 78250,2.00563404,0.0120742,MEO
39216,INSAT-3D,2013,1436.1,2090.0,+,0.03,Active,1,GSO,French Guiana,India,Government,Earth Observation,Ariane,1 39216U 13038B   24020.47732406 -.00000152  00000+0  00000+0 0  9994,2 39216   0.0250 272.4818 0003204   9.9132  90.8433  1.00271394 38268,1.00271394,0.0003204,GEO
39533,NAVSTAR 69 (USA 248),2014,717.99,1630.0,+,53.6,Active,1,MEO,USA,USA,Commercial/Military,Navigation (Global or Regional Positioning),Delta,1 39533U 14008A   24020.18897527  .00000080  00000+0  00000+0 0  9997,2 39533  53.5994 185.1339 0068464 215.7975 143.7285  2.00559477 72057,2.00559477,0.0068464,MEO
40105,NAVSTAR 71 (USA 256),2014,718.01,1630.0,+,54.87,Active,1,MEO,USA,USA,Commercial/Military,Navigation (Global or Regional Positioning),Atlas,1 40105U 14045A   24020.05775356 -.00000038  00000+0  00000+0 0  9990,2 40105  54.8671 123.5686 0026528 117.3761 242.8855  2.00555731 68447,2.00555731,0.0026528,MEO
40128,GSAT0201 (GALILEO 5),2014,776.2,733.0,+,49.81,Active,1,MEO,French Guiana,ESA,Commercial,Navigation (Global or Regional Positioning),Soyuz,1 40128U 14050A   24020.32541632 -.00000106  00000+0  00000+0 0  9995,2 40128  49.8049 309.0423 1605691 145.5445 226.0181  1.85519510 62012,1.8551951,0.1605691,MEO
40129,GSAT0202 (GALILEO 6),2014,776.2,733.0,+,49.82,Active,1,MEO,French Guiana,ESA,Commercial,Navigation (Global or Regional Positioning),Soyuz,1 40129U 14050B   24018.96731006 -.00000104  00000+0  00000+0 0  9997,2 40129  49.8244 308.1710 1603962 146.3013 225.0364  1.85520189 64151,1.85520189,0.1603962,MEO
